ONEWEB-0564             
1 55801U 23029F   24333.38293047  .00000051  00000+0  92896-4 0  9999
2 55801  87.9274  27.0382 0002209 107.6203 252.5171 13.20769923 87170
ONEWEB-0638             
1 55802U 23029G   24332.46782018 -.00000148  00000+0 -43465-3 0  9995
2 55802  87.9028  42.4557 0002355  94.6613 265.4786 13.14501970 84941
ONEWEB-0639             
1 55803U 23029H   24333.51446019  .00000126  00000+0  28358-3 0  9999
2 55803  87.9184  57.4620 0001537  58.7127 301.4156 13.19724747 84984
ONEWEB-0640             
1 55804U 23029J   24332.62957084  .00000026  00000+0  35343-4 0  9992
2 55804  87.9026  42.4162 0002361  84.4347 275.7052 13.14502664 84986
ONEWEB-0641             
1 55805U 23029K   24332.52408651  .00000100  00000+0  21634-3 0  9993
2 55805  87.9189  57.6368 0001552  92.6593 267.4717 13.19721948 84178
ONEWEB-0642             
1 55806U 23029L   24332.51936718  .00000118  00000+0  26240-3 0  9990
2 55806  87.9194  57.6668 0001214  66.2069 293.9191 13.19724626 84163
ONEWEB-0643             
1 55807U 23029M   24332.44719706 -.00000056  00000+0 -18519-3 0  9992
2 55807  87.9029  42.4319 0000920  89.6432 270.4803 13.14501739 84930
ONEWEB-0644             
1 55808U 23029N   24333.50025309  .00001071  00000+0  26422-2 0  9997
2 55808  87.9180  57.4717 0002290  92.0423 268.0972 13.19721030 84985
